#dP2021  7  7  0  0  0.00000000      96 __u+U ITR00 EXT  IAC
## 2165 259200.00000000   900.00000000 59402 0.0000000000000
+  117   C06C07C08C09C10C11C12C13C14C16C19C20C21C22C23C24C25
+        C26C27C28C29C30C32C33C34C35C36C37C38C39C40C41C42C43
+        C44C45C46E01E02E03E04E05E07E08E09E11E12E13E14E15E18
+        E19E21E24E25E26E27E30E31E33E36G01G02G03G04G05G06G07
+        G08G09G10G11G12G13G14G15G16G17G18G19G20G21G22G23G24
+        G25G26G27G28G29G30G31G32J01J02J03R01R02R03R04R05R07
+        R08R09R11R12R13R14R15R16R17R18R19R20R21R22R24  0  0
++         7 11  8 10 12  7  7 10  9 10  8  7  8  8  9  8  7
++         7  9  8  9  9  9  8  8  8  7  9  9 11  8  7  8  9
++         7  9  9  7  6  7  7  8  7  7  7  8  9  8  8  8  7
++         8  8  7  6  9  8  8  8  7  7  7  9  6  7  6  7  8
++         7  7  6 10  7  8  9  7  7  8  7  8  7  8  6  7  7
++         7  7  7  8  8  8  8  7 10 10  9  9  7  8  8  8  7
++         8  9  8  7  8  8  8  7  7  8  9  6  8 10  8  0  0
%c M  cc GPS ccc cccc cccc cccc cccc ccccc ccccc ccccc ccccc
%c cc cc ccc ccc cccc cccc cccc cccc ccccc ccccc ccccc ccccc
%f  0.0000000  0.000000000  0.00000000000  0.000000000000000
%f  0.0000000  0.000000000  0.00000000000  0.000000000000000
%i    0    0    0    0      0      0      0      0         0
%i    0    0    0    0      0      0      0      0         0
/* IAC                                ULTRA-RAPID PREDICTION
/* S/V CLOCKS ARE ALIGNED TO GNSS TIME                      
/* G:C1WC2W R:C1PC2P E:C1XC5X C:C2IC6I J:C1CC2S             
/* PCV:IGS14_2163 OL/AL:FES2004  NONE     YN ORB:CoN CLK:CoN
*  2021 07 07 11 45  0.00000000
PC06  -8618.917825  35373.515421  22174.391781    594.351153
PC07 -15699.141739  22926.268585 -31552.574042    147.613895
PC08 -23032.609536  32703.649621  12814.705857   -901.466020
PC09    824.087145  41507.601575   8930.774870    392.237073
PC10   -908.724250  26625.339832 -32407.464524    -21.377344
PC11   8926.552461 -20151.969094  17196.729480    443.508249
PC12  15316.535906  -1219.379372  23321.019130    819.401887
PC13 -12790.661262  33245.787844  22459.778811    327.697023
PC14  13967.751301 -10652.878943 -21644.122067    829.113677
PC16  -6219.978407  36528.808662  20457.452908   -932.847918
PC19  -3611.939339  15564.057370  22904.154292    900.098744
PC20 -20766.524879   5151.672017  17950.353238   -852.230088
PC21  26341.921683   8953.005056  -1948.216167   -935.194432
PC22  16173.291185  17319.450455  14714.468630   -948.456394
PC23  -5640.924824 -15834.964592  22286.038257   -961.881574
PC24  23640.144525 -14043.321951  -4821.926564   -927.531209
PC25  11756.020450 -21698.449507  13043.348967   -889.565452
PC26  20928.216570    -91.843358 -18479.175514    882.194488
PC27 -15817.392492  -9575.717944 -20919.724673    560.445377
PC28  -8850.628760 -25235.665673  -7990.451484    -53.470000
PC29  -2314.247443  26108.719270  -9588.875350    416.235234
PC30 -13280.174280  11536.498337 -21676.418790    473.255097
PC32 -26437.371035  -8745.193214   1968.948091   -924.176926
PC33   3570.042335 -15585.135869 -22865.844999   -940.941262
PC34  13031.610053 -12292.572670  21377.430355   -633.552267
PC35   9534.089851  25112.762299   7612.462656   -198.475265
PC36 -12598.919142  21392.894375 -12715.654683   -731.187937
PC37 -20407.881036  -1255.799382  19008.930714   -867.028299
PC38 -21296.858986  33859.211860  13098.055211    160.134865
PC39  -2984.329331  37248.878537  19692.362892     32.251977
PC40  -6276.773091  21533.513515 -35674.287802    178.212577
PC41 -15990.572734 -17328.372764 -14876.934429   -956.275087
PC42  21287.937996  -4622.571629 -17385.661355   -917.510893
PC43   2831.973598 -25880.887960  10006.846620   -810.357230
PC44  16215.590260   9296.327165  20717.867353    277.234433
PC45   5741.885576  15628.103458 -22382.803499    487.073919
PC46 -23344.434886  14771.258075   3846.954223    190.098370
PE01 -13355.550341  16562.845237 -20574.451155  -1145.011585
PE02  13218.895357 -16590.068530  20650.701251    231.246353
PE03   2398.097762 -20373.048077 -21341.352379   -450.047167
PE04  14451.451798  24768.368340   7340.001442   -808.224326
PE05  18141.765409  -3923.811781 -23049.132799   -267.092650
PE07 -23134.257643 -14611.675335  11319.195587   -558.786584
PE08 -14869.526186 -24618.321310  -7030.876155   5974.164071
PE09  23147.632186  14397.559706 -11504.561389   5608.560340
PE11  14877.137997   6471.150561  24743.557252   5752.695868
PE12   2864.683163  24536.527181  16312.339545   5123.091747
PE13 -14656.601034  -6870.942708 -24784.448717    418.708419
PE14 -17074.856320 -24268.415757  -5223.425232  -1491.927005
PE15  -2935.631075 -24477.140398 -16382.705241    804.777090
PE18   6568.164164  25287.724891  -6187.627321  -1634.849762
PE19  -4426.742179  18864.911107  22385.550053    320.845097
PE21 -27523.894416   9183.856121  -5862.334612   -674.879403
PE24  25919.814105   4602.585256 -13557.562242   -994.913697
PE25  27597.974706  -9072.477900   5679.602997   -539.244865
PE26 -17794.180328  15451.023194 -17912.339756   1607.177863
PE27 -26386.151093  -3870.112192  12849.169309    -70.417949
PE30  -8547.154016 -14995.746815  24041.300346   2803.508771
PE31   9751.164424  14542.102111 -23855.456761   -482.993750
PE33 -10491.116966  27633.520546  -1648.450023   -468.040289
PE36  17718.715500 -14729.875905  18573.491905   -231.129713
PG01  13990.611021 -22304.601039   1216.582335    635.599618
PG02 -17067.315343   4915.196423 -19118.129101   -617.875727
PG03  15218.051785 -12362.214806 -17953.798050   -213.421657
PG04   5429.672666 -17808.118486 -18911.894698   -201.831889
PG05 -24624.194997   6473.615664   7728.377227    -47.185863
PG06 -12571.065996  -7580.799685 -22080.374566     36.702596
PG07   3513.075244 -23277.817984  12156.042717    196.658934
PG08  12693.743989  -8134.492927  21849.277850    -27.899870
PG09  -4894.767846 -23542.487612 -11316.659267   -354.498966
PG10  16371.636180  11861.241766  17482.801158   -157.219508
PG11 -17952.492433   2617.052288 -19414.169750      9.350578
PG12 -16662.675518  10966.786933 -17720.857413    -65.281325
PG13 -16100.540427  -1031.926097  20990.838755    154.543201
PG14 -15987.097680 -12644.299266  17046.241383     53.062464
PG15 -12144.324321   9995.376308  21025.131867   -137.221353
PG16  26659.961544    557.999358   2528.012788   -353.218966
PG17 -13036.358397 -23022.023707  -1872.623469    470.046259
PG18  -2016.116644  22314.811162  14190.713016    342.564921
PG19 -16370.156685 -17848.368599 -11345.520056     23.144337
PG20 -26179.464825   2914.648153  -1461.177547    520.425318
PG21  16660.143904 -17879.397151  10440.801924    129.766935
PG22  21749.059049 -10312.352306 -10822.528643   -569.673821
PG23   4072.959650  14853.804792  21620.923494     87.819468
PG24 -15123.538850  20525.100246   6418.246943    164.710836
PG25  -4110.006620  15160.404021 -21650.255995    169.223617
PG26  24919.410675   4825.804315  -8335.373299    107.636118
PG27  17478.889983   3580.108874  19614.757885   -159.101305
PG28 -20392.670245 -10973.916079  13380.664805    542.006568
PG29   2163.264753  23331.975471 -12499.342519   -376.299471
PG30  -6874.160989 -16530.879241  19615.067752   -447.948772
PG31  14445.107122   5699.037531 -21661.071274   -127.284463
PG32  16066.788645  20739.536308  -4587.522320     15.298530
PJ01 -27303.538421  20743.936104  29591.466594   -410.542238
PJ02 -35701.418574  18045.341181  -8849.883361     -0.640214
PJ03 -18563.101198  30174.630414 -18353.475015    -10.307559
PR01   7364.018276  -8443.955044 -22911.224541     81.983772
PR02 -12216.464181 -16346.143297 -15222.248338    485.152898
PR03 -21841.878161 -13064.371269   1297.012499     39.049338
PR04 -18953.951858  -2661.792247  16888.881845     94.700050
PR05  -5581.960214   9273.923874  23110.700341     74.909836
PR07  21967.728536  12873.999973  -1834.625475    -42.108854
PR08  18990.410712   2588.197081 -16785.579451    -59.837941
PR09    479.910505  12271.947870 -22346.548352      1.688320
PR11  22964.020357  -9541.888704  -5630.964874    -19.265088
PR12  16236.489058 -15323.890376  12381.660954    243.323378
PR13    322.562833 -12322.244127  22320.114931    -57.354111
PR14 -16593.659533  -1712.570769  19320.891681     66.191078
PR15 -23135.341463   9465.863932   5120.980268    102.834281
PR16 -14916.269161  15801.120898 -13273.139493    -17.511029
PR17  -8683.893867 -12767.715816 -20316.085689    439.004469
PR18 -10436.593652   5644.922231 -22580.339875     82.600150
PR19  -7568.790299  20216.974852 -13591.143045   -150.598183
PR20    810.509251  24781.367489   6077.988611    -52.087997
PR21   8895.656118  11496.029029  20945.488234   -222.077820
PR22  10351.057932  -6569.124016  22331.091342   -121.436777
PR24  -1688.047140 -24558.563430  -6709.596399     49.480506
EOF
